COSMOS 2433 (720)       
1 32275U 07052A   24099.29942717 -.00000054  00000+0  00000+0 0  9996
2 32275  65.9576 342.7145 0001548 294.5648  65.4772  2.13103890128011
COSMOS 2432 (719)       
1 32276U 07052B   24099.53763264 -.00000055  00000+0  00000+0 0  9993
2 32276  65.9724 342.8192 0010754 336.1241 153.1193  2.13103144128048
COSMOS 2434 (721)       
1 32393U 07065A   24099.51449794  .00000003  00000+0  00000+0 0  9996
2 32393  64.3232 218.9344 0003122  79.3651 337.6656  2.13103071126735
COSMOS 2436 (723)       
1 32395U 07065C   24099.25956969  .00000001  00000+0  00000+0 0  9994
2 32395  64.3319 219.0069 0016358   3.5966 353.1194  2.13102816126671
COSMOS 2456 (730)       
1 36111U 09070A   24099.31108211  .00000054  00000+0  00000+0 0  9996
2 36111  64.5825  98.3536 0006390 303.7707 113.0247  2.13099004111383
COSMOS 2457 (733)       
1 36112U 09070B   24099.19877102  .00000055  00000+0  00000+0 0  9996
2 36112  64.5669  98.2179 0003220 203.0903 260.0418  2.13101159111424
COSMOS 2460 (732)       
1 36402U 10007C   24099.30664574 -.00000052  00000+0  00000+0 0  9998
2 36402  65.8158 341.3925 0002385  29.1297 147.7906  2.13106098109683
COSMOS 2476 (744)       
1 37867U 11064A   24099.50534618  .00000055  00000+0  00000+0 0  9997
2 37867  64.8575  99.9560 0024442 241.6720 235.3785  2.13101612 96728
COSMOS 2477 (745)       
1 37868U 11064B   24099.84757444  .00000050  00000+0  00000+0 0  9994
2 37868  64.8650 100.0165 0021640 243.2944 314.0455  2.13101450 96719
COSMOS 2475 (743)       
1 37869U 11064C   24099.25169309  .00000058  00000+0  00000+0 0  9995
2 37869  64.8719 100.0508 0026897 256.5653 162.3052  2.13101750 96721
COSMOS 2485 (747)       
1 39155U 13019A   24098.82540122  .00000065  00000+0  00000+0 0  9993
2 39155  65.0157 100.5488 0024623 237.9473 121.8399  2.13101728 85222
COSMOS 2492 (754)       
1 39620U 14012A   24098.78092053 -.00000049  00000+0  00000+0 0  9997
2 39620  65.6982 340.9974 0013516 330.0926  29.8893  2.13103024 78182
COSMOS 2500 (755)       
1 40001U 14032A   24098.96125900 -.00000050  00000+0  00000+0 0  9994
2 40001  65.6358 340.8020 0004323 198.3956 161.6475  2.13105916 76405
COSMOS 2501 (702K)      
1 40315U 14075A   24099.21356827  .00000001  00000+0  00000+0 0  9997
2 40315  63.6253 218.1080 0019346 206.2615 153.6211  2.13101334 72809
COSMOS 2514 (751)       
1 41330U 16008A   24099.19576033 -.00000051  00000+0  00000+0 0  9999
2 41330  65.4310 340.3210 0008179 211.1325 148.8777  2.13102533 63578
COSMOS 2522 (752)       
1 42939U 17055A   24099.50564602  .00000003  00000+0  00000+0 0  9998
2 42939  64.0861 219.1484 0007235 234.0256 125.8873  2.13101732 50933
COSMOS 2527 (756)       
1 43508U 18053A   24099.46460054  .00000057  00000+0  00000+0 0  9990
2 43508  65.1763 100.6648 0009900 245.2172 114.7022  2.13102296 45233
COSMOS 2529 (757)       
1 43687U 18086A   24099.56370173  .00000003  00000+0  00000+0 0  9998
2 43687  64.3014 219.6404 0008447 260.1369  99.7472  2.13101971 42249
COSMOS 2534 (758)       
1 44299U 19030A   24099.53826946  .00000003  00000+0  00000+0 0  9999
2 44299  64.3746 219.5879 0010610 284.8855 189.6904  2.13102001 37882
COSMOS 2544 (759)       
1 44850U 19088A   24099.40855953  .00000057  00000+0  00000+0 0  9990
2 44850  65.1628 100.5052 0015492 261.9416  97.9050  2.13102067 33675
COSMOS 2545 (760)       
1 45358U 20018A   24098.19783323 -.00000048  00000+0  00000+0 0  9996
2 45358  64.7713 340.4237 0007485 255.5372 104.4377  2.13102428 31598
COSMOS 2547 (705K)      
1 46805U 20075A   24099.32399143  .00000002  00000+0  00000+0 0  9995
2 46805  64.6030 219.2160 0006767 236.8386 123.0757  2.13103044 26862
COSMOS 2557 (706K)      
1 52984U 22075A   24099.01917281 -.00000055  00000+0  00000+0 0  9996
2 52984  64.6953 342.5323 0011680 287.8406  72.0892  2.13101714 13659
COSMOS 2559 (707K)      
1 54031U 22130A   24098.96184009 -.00000055  00000+0  00000+0 0  9990
2 54031  64.6665 342.6542 0004902 228.5627 131.4521  2.13101063 11636
COSMOS 2564 (761)       
1 54377U 22161A   24099.62256683  .00000004  00000+0  00000+0 0  9992
2 54377  64.7441 219.2981 0008917 214.0927 145.8303  2.13101985 10595
COSMOS 2569 (703K)      
1 57517U 23114A   24099.17109560  .00000059  00000+0  00000+0 0  9991
2 57517  64.8886  99.6878 0012974 294.6284  65.2590  2.13103975  5218
